LEMUR-1                 
1 40044U 14033AL  26159.13148250  .00002591  00000+0  30186-3 0  9997
2 40044  97.7869 309.1391 0049725 107.5159 253.1499 14.85211363644125
LEMUR-2-GREENBERG       
1 42837U 17042N   26159.06861268  .00018086  00000+0  60391-3 0  9992
2 42837  97.3822 339.7378 0009404  45.2806 314.9199 15.31050243486995
LEMUR-2-ANDIS           
1 42838U 17042P   26158.46644385  .00022181  00000+0  66499-3 0  9991
2 42838  97.3683 339.2899 0009002  46.6402 313.5589 15.34458844486962
LEMUR-2-MONSON          
1 42839U 17042Q   26159.05771860  .00016448  00000+0  60788-3 0  9991
2 42839  97.4082 339.7130 0007058  37.2909 322.8819 15.27774627486777
LEMUR-2-FURIAUS         
1 42840U 17042R   26158.46729570  .00018073  00000+0  62480-3 0  9995
2 42840  97.3773 337.1173 0008535  98.8266 261.3941 15.29931512486722
LEMUR-2-PETERG          
1 42841U 17042S   26159.29280800  .00019008  00000+0  58783-3 0  9996
2 42841  97.3995 344.3120 0003956  30.1041 330.0428 15.33538331487073
LEMUR-2-DEMBITZ         
1 42842U 17042T   26159.01073557  .00017120  00000+0  59059-3 0  9996
2 42842  97.3827 340.6728 0007492  58.2888 301.9082 15.30020981486942
LEMUR-2-ZACHARY         
1 42845U 17042W   26159.02199327  .00046326  00000+0  83982-3 0  9996
2 42845  97.3614 350.4691 0003536  65.1620 294.9998 15.49476173487781
LEMUR-2-AMANDA-SVANTE   
1 48269U 21034B   26159.16013595  .00026862  00000+0  82342-3 0  9997
2 48269  97.5755 237.2119 0001252 245.9412 114.1700 15.33756552279678
LEMUR-2-SPECIAL-K       
1 48273U 21034F   26158.99541153  .00144558  00000+0  16366-2 0  9993
2 48273  97.5651 245.2071 0003201 237.4247 122.6701 15.61934998280256
LEMUR-2-EMBRIONOVIS     
1 56970U 23084AQ  26159.15489134  .00011663  00000+0  32081-3 0  9995
2 56970  97.6281 303.0102 0008360 355.3556   4.7609 15.37322941166297
LEMUR-2-DEVERILL-M-T    
1 57391U 23100F   26159.07059470  .00030234  00000+0  77515-3 0  9995
2 57391  99.4478 195.1998 0007184  78.2426 281.9619 15.39306750159841
LEMUR-2-BASS            
1 58259U 23174D   26159.19565521  .00015161  00000+0  34785-3 0  9996
2 58259  97.3845 243.7848 0007046 191.7508 168.3577 15.42795954143973
LEMUR-2-JK0903EM1407    
1 58336U 23174CJ  26159.24302857  .00022483  00000+0  38512-3 0  9996
2 58336  97.3909 249.4665 0005915 144.6569 215.5076 15.51220603144342
LEMUR-2-MJR092620       
1 58340U 23174CN  26159.21923476  .00017049  00000+0  36854-3 0  9993
2 58340  97.3967 249.0861 0007009 143.9859 216.1863 15.44544699144263
LEMUR-2-NIMBUS2000      
1 58899U 24022A   26159.11107707  .00018833  00000+0  47734-3 0  9996
2 58899  97.4119   9.0005 0009974 143.9326 216.2595 15.39708686130875
LEMUR-2-VALHALLA        
1 58900U 24022B   26159.10543128  .00017258  00000+0  44203-3 0  9997
2 58900  97.4118   8.9902 0010514 140.2164 219.9855 15.39399554130872
LEMUR-2-OBA-NI-JESU     
1 58902U 24022D   26159.13691993  .01105389  73752-3  12740-2 0  9998
2 58902  97.3720  23.6731 0004544 198.6577 161.4540 16.09129280131875
LEMUR-2-CAEL            
1 58903U 24022E   26159.12287175  .00019168  00000+0  47063-3 0  9998
2 58903  97.4103   9.9277 0009122 124.1454 236.0659 15.40681050130948
LEMUR-2-JOHNNYTRUONG    
1 59146U 24043BA  26159.17054731  .00032841  00000+0  41001-3 0  9995
2 59146  97.5374 310.3207 0004512 204.2419 155.8626 15.59794558126631
LEMUR-2-TOMATOKECHUP    
1 60471U 24149D   26159.18192461  .00009672  00000+0  27958-3 0  9990
2 60471  97.3794 241.2073 0000552 202.0259 158.0961 15.35843091100785
LEMUR-2-STELLA          
1 60533U 24149BT  26159.21207591  .00009115  00000+0  54014-3 0  9999
2 60533  97.6732 241.6294 0001966  99.1230 261.0223 15.11615669 99147
LEMUR-2-MARHISYAM       
1 60536U 24149BW  26159.18916538  .00009562  00000+0  57494-3 0  9997
2 60536  97.6873 242.0463 0003012 135.4606 224.6866 15.11073553 99120
LEMUR-2-AHMED-ASRAR     
1 60576U 24149DN  26159.16573670  .00010047  00000+0  58037-3 0  9999
2 60576  97.6999 244.0809 0002654  64.5121 295.6384 15.12509708 99203
LEMUR-2-LLOYD           
1 60577U 24149DP  26159.15754027  .00008664  00000+0  55070-3 0  9992
2 60577  97.6745 240.2832 0004461 161.8028 198.3361 15.09066127 99036
LEMUR-2-SQUIRRELCOMM    
1 60578U 24149DQ  26159.15943992  .00005548  00000+0  37400-3 0  9999
2 60578  97.6712 240.1001 0006942  86.5698 273.6324 15.07051800 99047
LEMUR-2-SIERRINI        
1 60579U 24149DR  26159.21080262  .00008729  00000+0  52974-3 0  9996
2 60579  97.6837 241.7651 0005078 190.6952 169.4170 15.10757609 99105
LEMUR-2-WILSON          
1 62694U 25009CP  26159.19402813  .00001772  00000+0  16670-3 0  9993
2 62694  97.7025 237.8169 0004615  76.3417 283.8318 14.95128687 76017
LEMUR-2-STAR-FOX        
1 62696U 25009CR  26159.16837084  .00007485  00000+0  56990-3 0  9990
2 62696  97.6942 240.8429 0002876 135.8074 224.3381 15.02368090 76200
