OBJECT_NAME,OBJECT_ID,EPOCH,MEAN_MOTION,ECCENTRICITY,INCLINATION,RA_OF_ASC_NODE,ARG_OF_PERICENTER,MEAN_ANOMALY,EPHEMERIS_TYPE,CLASSIFICATION_TYPE,NORAD_CAT_ID,ELEMENT_SET_NO,REV_AT_EPOCH,BSTAR,MEAN_MOTION_DOT,MEAN_MOTION_DDOT
LEMUR-1,2014-033AL,2026-06-08T03:09:20.088000,14.85211363,.00497256,97.7869,309.1391,107.5159,253.1499,0,U,40044,999,64412,.30186009E-3,.2591E-4,0
LEMUR-2-GREENBERG,2017-042N,2026-06-08T01:38:48.135552,15.31050243,.00094049,97.3822,339.7378,45.2806,314.9199,0,U,42837,999,48699,.60391278E-3,.18086E-3,0
LEMUR-2-ANDIS,2017-042P,2026-06-07T11:11:40.748640,15.34458844,.00090023,97.3683,339.2899,46.6402,313.5589,0,U,42838,999,48696,.6649862E-3,.22181E-3,0
LEMUR-2-MONSON,2017-042Q,2026-06-08T01:23:06.887040,15.27774627,.0007058,97.4082,339.7130,37.2909,322.8819,0,U,42839,999,48677,.60788212E-3,.16448E-3,0
LEMUR-2-FURIAUS,2017-042R,2026-06-07T11:12:54.348480,15.29931512,.0008535,97.3773,337.1173,98.8266,261.3941,0,U,42840,999,48672,.62479608E-3,.18073E-3,0
LEMUR-2-PETERG,2017-042S,2026-06-08T07:01:38.611200,15.33538331,.00039564,97.3995,344.3120,30.1041,330.0428,0,U,42841,999,48707,.58782604E-3,.19008E-3,0
LEMUR-2-DEMBITZ,2017-042T,2026-06-08T00:15:27.553248,15.30020981,.00074922,97.3827,340.6728,58.2888,301.9082,0,U,42842,999,48694,.59058853E-3,.1712E-3,0
LEMUR-2-ZACHARY,2017-042W,2026-06-08T00:31:40.218528,15.49476173,.0003536,97.3614,350.4691,65.1620,294.9998,0,U,42845,999,48778,.83981904E-3,.46326E-3,0
LEMUR-2-AMANDA-SVANTE,2021-034B,2026-06-08T03:50:35.746080,15.33756552,.00012527,97.5755,237.2119,245.9412,114.1700,0,U,48269,999,27967,.82341666E-3,.26862E-3,0
LEMUR-2-SPECIAL-K,2021-034F,2026-06-07T23:53:23.556192,15.61934998,.00032018,97.5651,245.2071,237.4247,122.6701,0,U,48273,999,28025,.16365805E-2,.144558E-2,0
LEMUR-2-EMBRIONOVIS,2023-084AQ,2026-06-08T03:43:02.611776,15.37322941,.00083607,97.6281,303.0102,355.3556,4.7609,0,U,56970,999,16629,.32081322E-3,.11663E-3,0
LEMUR-2-DEVERILL-M-T,2023-100F,2026-06-08T01:41:39.382080,15.39306750,.00071844,99.4478,195.1998,78.2426,281.9619,0,U,57391,999,15984,.77514775E-3,.30234E-3,0
LEMUR-2-BASS,2023-174D,2026-06-08T04:41:44.610144,15.42795954,.00070465,97.3845,243.7848,191.7508,168.3577,0,U,58259,999,14397,.34785247E-3,.15161E-3,0
LEMUR-2-JK0903EM1407,2023-174CJ,2026-06-08T05:49:57.668448,15.51220603,.00059152,97.3909,249.4665,144.6569,215.5076,0,U,58336,999,14434,.38512245E-3,.22483E-3,0
LEMUR-2-MJR092620,2023-174CN,2026-06-08T05:15:41.883264,15.44544699,.00070092,97.3967,249.0861,143.9859,216.1863,0,U,58340,999,14426,.36854246E-3,.17049E-3,0
LEMUR-2-NIMBUS2000,2024-022A,2026-06-08T02:39:57.058848,15.39708686,.00099748,97.4119,9.0005,143.9326,216.2595,0,U,58899,999,13087,.47734105E-3,.18833E-3,0
LEMUR-2-VALHALLA,2024-022B,2026-06-08T02:31:49.262592,15.39399554,.00105143,97.4118,8.9902,140.2164,219.9855,0,U,58900,999,13087,.44202698E-3,.17258E-3,0
LEMUR-2-OBA-NI-JESU,2024-022D,2026-06-08T03:17:09.881952,16.09129280,.00045442,97.3720,23.6731,198.6577,161.4540,0,U,58902,999,13187,.12739733E-2,.1105389E-1,.73751929E-3
LEMUR-2-CAEL,2024-022E,2026-06-08T02:56:56.119200,15.40681050,.00091224,97.4103,9.9277,124.1454,236.0659,0,U,58903,999,13094,.47062757E-3,.19168E-3,0
LEMUR-2-JOHNNYTRUONG,2024-043BA,2026-06-08T04:05:35.287584,15.59794558,.00045124,97.5374,310.3207,204.2419,155.8626,0,U,59146,999,12663,.41001416E-3,.32841E-3,0
LEMUR-2-TOMATOKECHUP,2024-149D,2026-06-08T04:21:58.286304,15.35843091,.00005527,97.3794,241.2073,202.0259,158.0961,0,U,60471,999,10078,.27957616E-3,.9672E-4,0
LEMUR-2-STELLA,2024-149BT,2026-06-08T05:05:23.358624,15.11615669,.00019664,97.6732,241.6294,99.1230,261.0223,0,U,60533,999,9914,.5401368E-3,.9115E-4,0
LEMUR-2-MARHISYAM,2024-149BW,2026-06-08T04:32:23.888832,15.11073553,.00030128,97.6873,242.0463,135.4606,224.6866,0,U,60536,999,9912,.57494225E-3,.9562E-4,0
LEMUR-2-AHMED-ASRAR,2024-149DN,2026-06-08T03:58:39.650880,15.12509708,.00026544,97.6999,244.0809,64.5121,295.6384,0,U,60576,999,9920,.58037462E-3,.10047E-3,0
LEMUR-2-LLOYD,2024-149DP,2026-06-08T03:46:51.479328,15.09066127,.00044614,97.6745,240.2832,161.8028,198.3361,0,U,60577,999,9903,.55069701E-3,.8664E-4,0
LEMUR-2-SQUIRRELCOMM,2024-149DQ,2026-06-08T03:49:35.609088,15.07051800,.00069428,97.6712,240.1001,86.5698,273.6324,0,U,60578,999,9904,.37400031E-3,.5548E-4,0
LEMUR-2-SIERRINI,2024-149DR,2026-06-08T05:03:33.346368,15.10757609,.00050785,97.6837,241.7651,190.6952,169.4170,0,U,60579,999,9910,.52973788E-3,.8729E-4,0
LEMUR-2-WILSON,2025-009CP,2026-06-08T04:39:24.030432,14.95128687,.00046158,97.7025,237.8169,76.3417,283.8318,0,U,62694,999,7601,.16670039E-3,.1772E-4,0
LEMUR-2-STAR-FOX,2025-009CR,2026-06-08T04:02:27.240576,15.02368090,.00028766,97.6942,240.8429,135.8074,224.3381,0,U,62696,999,7620,.5698995E-3,.7485E-4,0
